ONEWEB-0176             
1 48210U 21031A   25262.19967383  .00000059  00000+0  12478-3 0  9993
2 48210  87.9080 343.6595 0001771 105.2759 254.8567 13.14504211212711
ONEWEB-0184             
1 48211U 21031B   25262.47718706 -.00000476  00000+0 -13196-2 0  9990
2 48211  87.9097 343.5760 0001401 130.7307 229.3945 13.14501314212724
ONEWEB-0179             
1 48212U 21031C   25262.60008081  .00000200  00000+0  50402-3 0  9999
2 48212  87.9081 343.5680 0001945 105.1727 254.9618 13.14503686212785
ONEWEB-0180             
1 48213U 21031D   25262.48035282 -.00000169  00000+0 -49065-3 0  9998
2 48213  87.9096 343.5813 0002027 110.4077 249.7270 13.14504478212651
ONEWEB-0218             
1 48214U 21031E   25262.50255785  .00000014  00000+0  42670-5 0  9998
2 48214  87.9092 343.5783 0001609 130.6501 229.4769 13.14504212212817
ONEWEB-0209             
1 48215U 21031F   25262.49146570 -.00000192  00000+0 -55342-3 0  9995
2 48215  87.9087 343.6234 0002026 104.1088 256.0267 13.14504431212816
ONEWEB-0198             
1 48216U 21031G   25262.47572058 -.00000095  00000+0 -29166-3 0  9995
2 48216  87.9079 343.6262 0001944 115.6319 244.5012 13.14504490212928
ONEWEB-0189             
1 48217U 21031H   25262.48827478 -.00000511  00000+0 -14119-2 0  9990
2 48217  87.9080 343.5967 0001869 113.4177 246.7150 13.14503123212666
